{
    "links": {
        "self": "http://www.neowsapp.com/rest/v1/neo/3869334?api_key=iIulBulltgU6a56xZRHN4H3l9WmuAYTsLGpBGhQ2"
    },
    "id": "3869334",
    "neo_reference_id": "3869334",
    "name": "(2019 SY5)",
    "designation": "2019 SY5",
    "nasa_jpl_url": "http://ssd.jpl.nasa.gov/sbdb.cgi?sstr=3869334",
    "absolute_magnitude_h": 22.3,
    "estimated_diameter": {
        "kilometers": {
            "estimated_diameter_min": 0.0921626549,
            "estimated_diameter_max": 0.2060819612
        },
        "meters": {
            "estimated_diameter_min": 92.1626548503,
            "estimated_diameter_max": 206.0819612321
        },
        "miles": {
            "estimated_diameter_min": 0.057267201,
            "estimated_diameter_max": 0.1280533543
        },
        "feet": {
            "estimated_diameter_min": 302.370924539,
            "estimated_diameter_max": 676.1219416887
        }
    },
    "is_potentially_hazardous_asteroid": false,
    "close_approach_data": [
        {
            "close_approach_date": "2019-08-28",
            "close_approach_date_full": "2019-Aug-28 04:02",
            "epoch_date_close_approach": 1566964920000,
            "relative_velocity": {
                "kilometers_per_second": "3.8260822255",
                "kilometers_per_hour": "13773.8960119061",
                "miles_per_hour": "8558.5633302869"
            },
            "miss_distance": {
                "astronomical": "0.2359869576",
                "lunar": "91.7989265064",
                "kilometers": "35303146.204740312",
                "miles": "21936357.8491958256"
            },
            "orbiting_body": "Earth"
        }
    ],
    "orbital_data": {
        "orbit_id": "1",
        "orbit_determination_date": "2019-09-28 16:42:06",
        "first_observation_date": "2019-09-22",
        "last_observation_date": "2019-09-28",
        "data_arc_in_days": 6,
        "observations_used": 11,
        "orbit_uncertainty": "9",
        "minimum_orbit_intersection": ".225254",
        "jupiter_tisserand_invariant": "3.496",
        "epoch_osculation": "2458751.5",
        "eccentricity": ".4546173534648571",
        "semi_major_axis": "2.228079411502679",
        "inclination": "5.578267790864117",
        "ascending_node_longitude": "34.70458567647137",
        "orbital_period": "1214.771027088966",
        "perihelion_distance": "1.215155846135795",
        "perihelion_argument": "299.3037543010697",
        "aphelion_distance": "3.241002976869564",
        "perihelion_time": "2458727.197091508388",
        "mean_anomaly": "7.202219069997268",
        "mean_motion": ".2963521453608349",
        "equinox": "J2000",
        "orbit_class": {
            "orbit_class_type": "AMO",
            "orbit_class_description": "Near-Earth asteroid orbits similar to that of 1221 Amor",
            "orbit_class_range": "1.017 AU < q (perihelion) < 1.3 AU"
        }
    },
    "is_sentry_object": false
}